#dP2022  4 19 18  0  0.00000000      96 __u+U ITR00 EXT  IAC
## 2206 237600.00000000   900.00000000 59688 0.7500000000000
+  117   C06C07C08C09C10C11C12C13C14C16C19C20C21C22C23C24C25
+        C26C27C28C29C30C32C33C34C35C36C37C38C39C40C41C42C43
+        C44C45C46E01E02E03E04E05E07E08E09E10E11E12E13E14E15
+        E18E19E21E24E25E26E27E30E31E33E34E36G01G02G03G04G05
+        G06G07G08G09G10G11G12G13G14G15G16G17G18G19G20G21G22
+        G23G24G25G26G27G28G29G30G31G32J02J03R01R02R03R04R05
+        R07R08R09R11R12R13R14R15R17R18R19R20R21R22R24  0  0
++         9 11  7  8  9  9  9 10  8  9  7  7  8  9  9  8  9
++         8  9 10  9  7  7  7 10  9 10  9  8 10 11  8  9 10
++         8  9  9  8  7  9  8  8  8  9  8  7  8  8  8  8  7
++         8  8  8  9  9  8  7  8  8  9  7  8  8  7  8  8  8
++         7  8  8  8  9  8  7  8  7  6  8  8  7  8  7  8  8
++         8  8  7  8  9  9  7  8  8  7 11 10  9  9  9  8  8
++         9  9  8 10  9  9  9  8  9  9  9  9  7 10 10  0  0
%c M  cc GPS ccc cccc cccc cccc cccc ccccc ccccc ccccc ccccc
%c cc cc ccc ccc cccc cccc cccc cccc ccccc ccccc ccccc ccccc
%f  0.0000000  0.000000000  0.00000000000  0.000000000000000
%f  0.0000000  0.000000000  0.00000000000  0.000000000000000
%i    0    0    0    0      0      0      0      0         0
%i    0    0    0    0      0      0      0      0         0
/* IAC                                ULTRA-RAPID PREDICTION
/* S/V CLOCKS ARE ALIGNED TO GNSS TIME                      
/* G:C1WC2W R:C1PC2P E:C1XC5X C:C2IC6I J:C1CC2S             
/* PCV:IGS14_2196 OL/AL:FES2004  NONE     YN ORB:CoN CLK:CoN
*  2022 04 20 10 45  0.00000000
PC06 -16518.708039  25481.688681 -29326.379841   -170.229796
PC07 -11326.814419  40288.098418  -4452.352554    -63.543057
PC08     42.084900  26602.534169  32766.797679    269.345583
PC09  -5919.523494  25091.090735 -33083.412457   -713.498656
PC10  -4917.589584  41519.083411   3098.655261    135.598298
PC11 -26667.135757   1315.120154  -8014.468414    303.148835
PC12 -15150.900058 -10300.981866 -21016.094430   -626.344631
PC13   8133.598477  31336.882316  27283.877033    -55.448641
PC14 -16259.330243    359.299682  22698.262339    460.397624
PC16 -19246.218070  24780.421881 -28114.933410    121.710584
PC19  16527.262199 -11475.123241 -19314.001084    876.694301
PC20  13875.155218   8603.125958 -22606.839462   -884.413506
PC21  -2650.771568 -24836.706591  12494.579865   -145.699156
PC22   9780.489331 -25724.502204  -4709.844124   -969.427308
PC23  -5515.488571  16512.921288 -21807.813893   -931.978950
PC24 -22117.587754 -16074.307767  -5531.448320   -955.224140
PC25 -19309.640264   1669.903888 -20077.636016   -748.322734
PC26 -13011.320551 -22342.204700  10444.949310    749.163221
PC27   5768.952492  14843.963606  22891.486623    710.720623
PC28 -14427.682824  16348.221177  17416.171408     57.444947
PC29  26339.803703  -9117.705907  -1296.545707    543.850500
PC30  22616.892992   4407.079326  15713.458053    497.236206
PC32   2794.626195  24819.898406 -12410.052541   -962.939262
PC33 -16511.784039  11418.863469  19387.062338   -967.147088
PC34 -23263.752702  -3770.808776 -14979.678618   -421.455487
PC35  14697.545953 -16748.386562 -16787.419950    237.287767
PC36  19626.218908   -718.596573  19847.941481   -963.983504
PC37  11586.941668  22685.555290 -11406.981359   -921.253724
PC38  -7929.925540  23646.327623  34051.674969    226.457154
PC39 -24362.424516  24999.233851 -23747.102572     34.948916
PC40 -16883.785680  37786.742113  -7620.853670    262.388762
PC41 -10007.760256  25527.783337   5237.975143   -966.878733
PC42 -13546.256544  -9757.975809  22414.522948   -954.061684
PC43 -26561.349575   8586.558012    594.351354   -928.865050
PC44  -6165.767295 -14836.537942 -22832.039055    633.764491
PC45   5190.167385 -16595.769152  21822.004508    736.155440
PC46  22448.631967  15102.736784   6913.262989   -281.798738
PE01  -3382.998139 -28566.262241   6959.394817   -619.947671
PE02   3498.330820  28603.768631  -6812.961896    294.018517
PE03  -5428.472992  23419.681863 -17257.038070   -549.944106
PE04 -12334.714181 -11813.279551  24187.322148  -1010.568367
PE05 -20360.855387  21484.140577    -33.770520   -189.116762
PE07  23219.524089  -7101.045203 -16924.615256   -660.463107
PE08  12529.522828  11384.755197 -24273.971411   -515.477127
PE09 -23151.022911   7369.659963  16907.170476   -490.649951
PE10 -27967.968820  -8942.135857  -3769.561827   -507.876556
PE11 -28775.428139  -2393.501955   6557.277410   3905.643266
PE12 -22739.891703 -13936.657211 -12869.732596   4653.664406
PE13  28861.348012   2787.636941  -5917.646565    428.148572
PE14 -12532.778247  18218.568985   8883.771468  -1820.606097
PE15  22647.804132  13895.401949  13035.151861    750.553227
PE18   9575.297977 -25101.170758 -18121.705129  -1542.936803
PE19   7753.627461 -23929.439177  15611.969837  -3324.081422
PE21   9331.756585 -18725.222613  20933.073733   -729.533277
PE24 -17745.190167  -3853.096959 -23387.318382   -571.098183
PE25  -9492.348266  18501.570257 -21067.258917   -571.063944
PE26  17244.928333 -10490.847780 -21646.964860  -1051.730872
PE27  17535.488472   2454.913515  23721.182384   -280.460874
PE30  14875.486484  22794.014833  11640.770391   -445.701566
PE31 -15344.099106 -21991.398412 -12524.861508   -495.358814
PE33  -3133.095986 -16755.139923 -24200.037811   -457.439090
PE34   3379.855541  16769.823578  24148.047427   -513.003378
PE36 -18096.702306   9868.279944  21250.276276   -362.294609
PG01 -21081.022085 -14245.104985  -8525.913771    380.823377
PG02   1198.095829  16019.251622  21786.378023   -653.190064
PG03 -12685.518835 -18778.055434  13840.773069   -214.012691
PG04 -13228.542847  -8659.054193  21361.509820   -174.379831
PG05   5336.682367  25932.308361    139.328187    -78.971686
PG06 -15107.821834   8529.600450  20200.123793    273.447719
PG07 -25504.208824  -4903.546948  -6298.046968    320.693488
PG08  -4540.359723 -15427.886640 -21112.903261    -64.737469
PG09 -20466.666762   1860.369648  16775.756667   -342.491104
PG10  12429.259930 -10769.333609 -20642.472376   -385.609058
PG11    585.138187  16226.464780  21017.707584    -36.910552
PG12   9527.919676  22265.619029  10774.472106   -203.187995
PG13  -5504.544629  18344.222318 -18480.184969    297.421719
PG14 -13631.139499   9489.561623 -20713.781355   -103.759507
PG15   7401.108807  14992.138774 -20999.242878    -67.509276
PG16    782.483752 -25950.743851   3994.907020   -493.468362
PG17 -22235.163467  14360.372863  -2095.304899    602.695004
PG18  25251.537399   5131.378398  -6673.018573    190.865432
PG19 -20157.922435  16565.479897   4098.145499    146.806252
PG20    160.213709  24530.727482  10472.685119    515.737711
PG21 -13933.845672 -15666.243208 -16043.327537    160.585541
PG22  17573.053019 -18498.616799   7438.667931    246.296524
PG23  15428.905749   1484.437363 -21588.515569    -16.313009
PG24  18794.616957  14814.328673 -12247.596331    253.954339
PG25  15370.673747   9814.809124  19116.382632    314.382964
PG26   6476.401396 -20853.439014  14819.915484    199.961442
PG27   7518.036790 -20042.855571 -15668.412243    187.304801
PG28  -9772.392212  18385.701475 -16109.243293    369.438808
PG29  19875.067575    403.208276  17593.686195   -505.081531
PG30 -22326.509386   2487.612244 -14284.940081   -524.592059
PG31  13384.232389 -10241.512100  20505.073857   -174.219310
PG32  20613.526109 -16558.645339   -738.749118   -109.387977
PJ02 -19179.413055  26050.730346 -22573.971665     -2.866652
PJ03 -30491.004050  25661.335746  18868.545008     -1.644373
PR01  -8954.157055  -6986.706945  22848.858438      7.958336
PR02 -14634.785273  12803.283661  16592.931293    516.086718
PR03 -10946.019599  23063.999122    655.768518     55.257128
PR04  -1425.680175  20219.559313 -15456.712922    137.621947
PR05   8924.764981   6338.098389 -23023.389180     91.486960
PR07  10564.477966 -23190.721520    245.971603     34.096668
PR08   1118.182974 -20150.310706  15648.128268    -64.704767
PR09  13065.660507   -526.280246  21902.938927     50.783932
PR11 -11197.686044 -21541.960013   7855.110136     40.759636
PR12 -17308.614863 -15397.707912 -10633.728261     18.028357
PR13 -13527.418923   -925.989503 -21623.429935    -21.144683
PR14  -1027.455336  15366.755084 -20320.937569     76.730146
PR15  11393.046045  21715.006433  -7006.044004     96.704064
PR17 -12993.629848  10030.946143  19516.947392    519.144132
PR18   5025.087255   9923.263483  22959.721888    114.183721
PR19  19681.411431   5686.573104  15191.494151   -186.046675
PR20  24891.093499  -3241.331989  -4390.678846    -68.993170
PR21  11652.919120 -10127.250382 -20315.385747   -294.790266
PR22  -6078.421069  -9742.669479 -22806.780525   -178.073076
PR24 -24635.103182   4254.001403   5063.689190     89.956973
EOF
